HST                     
1 20580U 90037B   22284.55249782  .00004405  00000+0  24615-3 0  9997
2 20580  28.4690 119.2814 0002301 205.2553 185.2078 15.11030248583798
POLAR                   
1 23802U 96013A   22279.69519315  .00000204  00000+0  00000+0 0  9999
2 23802  78.7984 240.5155 5785326 255.0690  37.1195  1.29847304127335
SWAS                    
1 25560U 98071A   22284.46884632  .00003931  00000+0  36583-3 0  9995
2 25560  69.9012  53.8004 0006270 169.4352 190.6938 14.95110012295367
CXO                     
1 25867U 99040B   22287.04271729  .00000844  00000+0  00000+0 0  9997
2 25867  42.1583 225.1184 8934359 240.5643   0.1804  0.37807707 12242
XMM-NEWTON              
1 25989U 99066A   22280.18010524 -.00000023  00000+0  00000+0 0  9992
2 25989  69.8247 302.6995 5881536  85.5163 359.9604  0.50128916 16240
TERRA                   
1 25994U 99068A   22284.53313792  .00000676  00000+0  15966-3 0  9990
2 25994  98.1266 353.7305 0001021 100.3278  12.5588 14.57177209213406
CLUSTER II-FM7 (SAMBA)  
1 26410U 00041A   22286.51648661  .00000006  00000+0  00000+0 0  9999
2 26410 134.7073 348.9694 5916481 201.4514   0.9101  0.44227483 14330
CLUSTER II-FM6 (SALSA)  
1 26411U 00041B   22286.45974876 -.00000055  00000+0  00000+0 0  9998
2 26411 137.5862 353.4948 7596107 206.7086   0.9971  0.44223416 14397
CLUSTER II-FM5 (RUMBA)  
1 26463U 00045A   22286.46495174  .00000069  00000+0  00000+0 0  9993
2 26463 141.0554 353.7897 7100045 207.6120   1.0265  0.44222460 14261
CLUSTER II-FM8 (TANGO)  
1 26464U 00045B   22286.47159336  .00000007  00000+0  00000+0 0  9994
2 26464 134.7084 348.9599 5915911 201.4452   0.8924  0.44220300 14347
ODIN                    
1 26702U 01007A   22284.46113696  .00006672  00000+0  40550-3 0  9996
2 26702  97.5180 297.1310 0009100 245.1200 114.9084 15.10765010183786
TIMED                   
1 26998U 01055B   22284.49658038  .00001967  00000+0  21368-3 0  9991
2 26998  74.0746  48.4314 0002211 269.3159  90.7769 14.88854074130279
RHESSI                  
1 27370U 02004A   22284.51594857  .00047761  00000+0  85344-3 0  9998
2 27370  38.0324 355.9893 0007698 111.3236 248.8362 15.49044719144589
INTEGRAL                
1 27540U 02048A   22279.12833214 -.00000059  00000+0  00000+0 0  9991
2 27540  78.2048  52.8171 8873889 296.8159   7.0909  0.37574606 21561
CORIOLIS                
1 27640U 03001A   22284.66148362  .00000156  00000+0  95224-4 0  9994
2 27640  98.7194 291.7828 0015105 121.1522  13.0352 14.19157280 23436
SORCE                   
1 27651U 03004A   22284.48502783  .00003103  00000+0  32694-3 0  9996
2 27651  39.9947 289.4846 0023507 211.2946 148.6445 14.90218816 70400
MOST                    
1 27843U 03031D   22284.48947222  .00000135  00000+0  82939-4 0  9990
2 27843  98.7101 290.3987 0010187 167.3373 192.8062 14.20706684999729
SCISAT 1                
1 27858U 03036A   22284.48919476  .00000872  00000+0  12662-3 0  9994
2 27858  73.9324 314.9740 0008947 319.0868  40.9634 14.77666388 32570
SWIFT                   
1 28485U 04047A   22284.10701502  .00008380  00000+0  51165-3 0  9995
2 28485  20.5566 218.1209 0010304 325.9296  34.0476 15.07136697981018
CLOUDSAT                
1 29107U 06016A   22284.53185473  .00000620  00000+0  13031-3 0  9994
2 29107  98.3423 245.8366 0002479 330.4268  29.6792 14.63107783876008
CALIPSO                 
1 29108U 06016B   22284.53136026  .00001904  00000+0  37993-3 0  9994
2 29108  98.3394 245.3605 0001442  81.1069 279.0295 14.63129649875996
HINODE (SOLAR-B)        
1 29479U 06041A   22284.08328127  .00000887  00000+0  17448-3 0  9990
2 29479  98.1196 297.7776 0017597 218.5446 141.4502 14.64937985857688
SJ-6C                   
1 29505U 06046A   22284.51730184  .00003787  00000+0  33797-3 0  9990
2 29505  97.7733 304.7923 0005901  90.7642 269.4277 14.96549626870059
SJ-6D                   
1 29506U 06046B   22284.47031027  .00001823  00000+0  17548-3 0  9991
2 29506  97.7923 304.7955 0002540 156.5307 203.6065 14.94216104869469
AGILE                   
1 31135U 07013A   22284.26052525  .00022504  00000+0  50740-3 0  9990
2 31135   2.4682  37.7115 0009310 121.1575 238.9392 15.40171755494825
AIM                     
1 31304U 07015A   22284.37640426  .00017816  00000+0  84064-3 0  9991
2 31304  97.8536 208.0124 0004236   6.0119 354.1165 15.19519665848788
FGRST (GLAST)           
1 33053U 08029A   22284.56381720  .00003341  00000+0  16974-3 0  9993
2 33053  25.5820  95.2579 0012385  86.1445 274.0506 15.12513193791295
WISE                    
1 36119U 09071A   22284.09611595  .00012434  00000+0  36806-3 0  9990
2 36119  97.2292 316.2510 0000928 195.3761 164.7455 15.35021187713233
SDO                     
1 36395U 10005A   22284.48810443 -.00000050  00000+0  00000+0 0  9996
2 36395  31.8775 107.3434 0001531 202.3451 144.3846  1.00273900 46549
CRYOSAT 2               
1 36508U 10013A   22284.52138754  .00000306  00000+0  75303-4 0  9990
2 36508  92.0262 312.2636 0003833 180.8249 179.2952 14.51902153662973
X-SAT                   
1 37389U 11015C   22284.55048315  .00000125  00000+0  71558-4 0  9994
2 37389  98.3276 311.8761 0013581 336.5182  23.5380 14.24444523596734
GCOM-W1 (SHIZUKU)       
1 38337U 12025A   22284.42399595  .00001001  00000+0  23212-3 0  9992
2 38337  98.2107 223.2010 0001352  79.0193  32.7790 14.57113503553194
NUSTAR                  
1 38358U 12031A   22284.41653797  .00005199  00000+0  45419-3 0  9993
2 38358   6.0261 239.7631 0012024 217.0475 142.8823 14.89783138562171
NEOSSAT                 
1 39089U 13009D   22284.43963637  .00000276  00000+0  11248-3 0  9994
2 39089  98.4174 117.8308 0010284 295.5718  64.4404 14.34703174503840
BRITE-AUSTRIA           
1 39091U 13009F   22284.42482992  .00000264  00000+0  10700-3 0  9995
2 39091  98.4002 118.7012 0009423 295.9504  64.0710 14.35310816504064
IRIS                    
1 39197U 13033A   22284.45113141  .00001623  00000+0  22329-3 0  9999
2 39197  97.9708 109.2951 0027786  16.3493 343.8608 14.79407796501129
HISAKI (SPRINT-A)       
1 39253U 13049A   22284.25107646  .00000134  00000+0  91863-4 0  9996
2 39253  29.7194 216.2907 0136998 275.3467  83.1488 13.55288480448825
CASSIOPE                
1 39265U 13055A   22284.57562422  .00018435  00000+0  48569-3 0  9995
2 39265  80.9625 144.0291 0611462 333.5784  23.5368 14.41348553469049
STSAT-3                 
1 39422U 13066G   22284.55160537  .00002556  00000+0  26427-3 0  9997
2 39422  97.4750 283.4917 0020883 253.8440 106.0513 14.90779965483137
SWARM B                 
1 39451U 13067A   22284.49012253  .00004938  00000+0  22177-3 0  9998
2 39451  87.7571  26.5916 0002472  97.5673 262.5853 15.20939757478569
SWARM A                 
1 39452U 13067B   22284.47590614  .00007653  00000+0  23661-3 0  9995
2 39452  87.3669 183.1091 0002784  76.7588 283.3974 15.33334841499709
SWARM C                 
1 39453U 13067C   22284.47578346  .00007583  00000+0  23432-3 0  9992
2 39453  87.3518 182.3458 0002722  76.3335 283.8220 15.33350638499665
BRITE-CA1 (TORONTO)     
1 40020U 14033L   22284.43026510  .00001593  00000+0  27660-3 0  9997
2 40020  97.7940  77.5960 0085342 253.4059 105.7761 14.67180188444663
OCO 2                   
1 40059U 14035A   22284.46807439  .00000867  00000+0  20244-3 0  9995
2 40059  98.2106 223.9682 0001428  94.5638 265.5724 14.57110490440223
BRITE-PL2 (HEWELIUSZ)   
1 40119U 14049B   22284.49132476  .00002613  00000+0  30937-3 0  9993
2 40119  97.8847  18.9419 0016287 219.0026 141.0015 14.85361533441231
RESURS P2               
1 40360U 14087A   22284.56114196  .00011553  00000+0  31239-3 0  9999
2 40360  97.2023   7.1945 0009951  39.6020  83.9976 15.37822086436094
MMS 1                   
1 40482U 15011A   22280.12344853 -.00001028  00000+0  00000+0 0  9990
2 40482  30.7171  96.7319 8823832  62.1539 359.7070  0.28529549 13621
MMS 2                   
1 40483U 15011B   22280.31579066 -.00001006  00000+0  00000+0 0  9994
2 40483  30.6844  96.6856 8825638  62.2088  19.4744  0.28552508 13684
MMS 3                   
1 40484U 15011C   22280.31579205 -.00001004  00000+0  00000+0 0  9998
2 40484  30.7081  96.7126 8824213  62.1756  19.5179  0.28557313 13366
MMS 4                   
1 40485U 15011D   22280.31579192 -.00001005  00000+0  00000+0 0  9995
2 40485  30.6804  96.7069 8824070  62.1811  19.5054  0.28552611 13591
ASTROSAT                
1 40930U 15052A   22284.16523067  .00002189  00000+0  21581-3 0  9996
2 40930   5.9973  72.9797 0008841 350.1797   9.8157 14.76795266380289
DAMPE                   
1 41173U 15078A   22284.52919705  .00001782  00000+0  74903-4 0  9997
2 41173  97.3868 273.5995 0014537 145.1848   7.6734 15.24638392379267
PISAT                   
1 41784U 16059B   22284.05950453  .00001194  00000+0  23470-3 0  9997
2 41784  97.9043 322.8510 0032171 161.7600 198.4765 14.64038592322609
HXMT (HUIYAN)           
1 42758U 17034A   22284.58390420  .00006257  00000+0  37975-3 0  9993
2 42758  43.0169  69.3893 0010657 290.1790 164.4048 15.11075139293741
FLYING LAPTOP           
1 42831U 17042G   22284.36199377  .00002024  00000+0  20448-3 0  9993
2 42831  97.4094 132.0188 0013654 346.6059  13.4777 14.91999798285378
PICSAT                  
1 43132U 18004X   22284.17705708  .00027641  00000+0  82581-3 0  9995
2 43132  97.3635   0.0864 0006088 309.6723  50.3982 15.34546784264138
ZHANGZHENG-1 (CSES)     
1 43194U 18015C   22284.59621900  .00015525  00000+0  70263-3 0  9994
2 43194  97.5375  55.2765 0011600  43.5352  85.0153 15.20929681260271
ICON                    
1 44628U 19068A   22284.06955551  .00004799  00000+0  42721-3 0  9999
2 44628  26.9896 272.7919 0018557 164.3181 195.7954 14.93295688163862
SALSAT                  
1 46495U 20068K   22284.40334283  .00005490  00000+0  39007-3 0  9998
2 46495  97.7373 225.8170 0014978 242.4792 117.4913 15.05028081111627
IXPE                    
1 49954U 21121A   22284.21284559  .00005242  00000+0  43118-3 0  9994
2 49954   0.2297 252.4656 0011152 196.0273 271.6347 14.91801711 45755
